ONEWEB-0593             
1 54659U 22166T   25325.39725242  .00000081  00000+0  16372-3 0  9997
2 54659  87.9192 285.4277 0001921  86.9424 273.1930 13.21824369144090
ONEWEB-0594             
1 54660U 22166U   25325.41698735 -.00000005  00000+0 -44051-4 0  9992
2 54660  87.9190 285.4417 0001927  82.1756 277.9596 13.21829045144117
ONEWEB-0595             
1 54661U 22166V   25325.39395985  .00000112  00000+0  23859-3 0  9990
2 54661  87.9190 285.4197 0001932  77.2394 282.8956 13.21826583144087
ONEWEB-0596             
1 54662U 22166W   25325.44331752 -.00000250  00000+0 -63589-3 0  9998
2 54662  87.9190 285.4265 0001852  79.8454 280.2889 13.21825618144096
ONEWEB-0597             
1 54663U 22166X   25325.42521720  .00000012  00000+0 -34413-5 0  9994
2 54663  87.9193 285.4344 0001752  85.0638 275.0696 13.21828727144092
ONEWEB-0600             
1 54664U 22166Y   25325.40711948  .00000052  00000+0  93936-4 0  9993
2 54664  87.9191 285.4290 0001892  86.9093 273.2257 13.21828712144065
ONEWEB-0601             
1 54665U 22166Z   25325.39888977  .00000070  00000+0  13752-3 0  9996
2 54665  87.9193 285.4486 0001646  88.9138 271.2184 13.21828560144253
ONEWEB-0602             
1 54666U 22166AA  25325.43922146  .00000026  00000+0  31923-4 0  9991
2 54666  87.9194 285.4442 0002083  91.6137 268.5236 13.21824529144105
ONEWEB-0603             
1 54667U 22166AB  25325.44499059  .00000067  00000+0  13116-3 0  9993
2 54667  87.9202 285.3806 0001801  86.1999 273.9341 13.21824457144030
ONEWEB-0604             
1 54668U 22166AC  25325.43345454 -.00000046  00000+0 -14359-3 0  9991
2 54668  87.9193 285.4045 0001855  89.0765 271.0581 13.21826148143996
ONEWEB-0605             
1 54669U 22166AD  25325.42685988  .00000009  00000+0 -10401-4 0  9993
2 54669  87.9190 285.4342 0001208  86.2687 273.8585 13.21828825144065
ONEWEB-0606             
1 54670U 22166AE  25325.44825498  .00000025  00000+0  28581-4 0  9994
2 54670  87.9193 285.4404 0001971  77.4860 282.6494 13.21823770144129
ONEWEB-0607             
1 54671U 22166AF  25325.41533907  .00000016  00000+0  84089-5 0  9999
2 54671  87.9192 285.4110 0001804  87.3809 272.7531 13.21829482144095
ONEWEB-0608             
1 54672U 22166AG  25325.42194394  .00000621  00000+0  14717-2 0  9994
2 54672  87.9197 285.3958 0001320  93.6882 266.4403 13.21827203144103
ONEWEB-0610             
1 54673U 22166AH  25325.40218757 -.00000039  00000+0 -12584-3 0  9999
2 54673  87.9190 285.4344 0001433  98.9431 261.1866 13.21827524144000
ONEWEB-0611             
1 54674U 22166AJ  25325.39561153  .00000067  00000+0  12963-3 0  9999
2 54674  87.9190 285.4314 0002059  80.0123 280.1243 13.21824612143995
ONEWEB-0612             
1 54675U 22166AK  25325.40876404  .00000068  00000+0  13222-3 0  9990
2 54675  87.9190 285.4077 0001763  85.3280 274.8055 13.21827797143982
