[{"OBJECT_NAME":"ONEWEB-0593","OBJECT_ID":"2022-166T","EPOCH":"2025-11-21T09:32:02.609088","MEAN_MOTION":13.21824369,"ECCENTRICITY":0.0001921,"INCLINATION":87.9192,"RA_OF_ASC_NODE":285.4277,"ARG_OF_PERICENTER":86.9424,"MEAN_ANOMALY":273.193,"EPHEMERIS_TYPE":0,"CLASSIFICATION_TYPE":"U","NORAD_CAT_ID":54659,"ELEMENT_SET_NO":999,"REV_AT_EPOCH":14409,"BSTAR":0.00016372,"MEAN_MOTION_DOT":8.1e-7,"MEAN_MOTION_DDOT":0},{"OBJECT_NAME":"ONEWEB-0594","OBJECT_ID":"2022-166U","EPOCH":"2025-11-21T10:00:27.707040","MEAN_MOTION":13.21829045,"ECCENTRICITY":0.0001927,"INCLINATION":87.919,"RA_OF_ASC_NODE":285.4417,"ARG_OF_PERICENTER":82.1756,"MEAN_ANOMALY":277.9596,"EPHEMERIS_TYPE":0,"CLASSIFICATION_TYPE":"U","NORAD_CAT_ID":54660,"ELEMENT_SET_NO":999,"REV_AT_EPOCH":14411,"BSTAR":-4.4051e-5,"MEAN_MOTION_DOT":-5.0e-8,"MEAN_MOTION_DDOT":0},{"OBJECT_NAME":"ONEWEB-0595","OBJECT_ID":"2022-166V","EPOCH":"2025-11-21T09:27:18.131040","MEAN_MOTION":13.21826583,"ECCENTRICITY":0.0001932,"INCLINATION":87.919,"RA_OF_ASC_NODE":285.4197,"ARG_OF_PERICENTER":77.2394,"MEAN_ANOMALY":282.8956,"EPHEMERIS_TYPE":0,"CLASSIFICATION_TYPE":"U","NORAD_CAT_ID":54661,"ELEMENT_SET_NO":999,"REV_AT_EPOCH":14408,"BSTAR":0.00023859,"MEAN_MOTION_DOT":1.12e-6,"MEAN_MOTION_DDOT":0},{"OBJECT_NAME":"ONEWEB-0596","OBJECT_ID":"2022-166W","EPOCH":"2025-11-21T10:38:22.633728","MEAN_MOTION":13.21825618,"ECCENTRICITY":0.0001852,"INCLINATION":87.919,"RA_OF_ASC_NODE":285.4265,"ARG_OF_PERICENTER":79.8454,"MEAN_ANOMALY":280.2889,"EPHEMERIS_TYPE":0,"CLASSIFICATION_TYPE":"U","NORAD_CAT_ID":54662,"ELEMENT_SET_NO":999,"REV_AT_EPOCH":14409,"BSTAR":-0.00063589,"MEAN_MOTION_DOT":-2.5e-6,"MEAN_MOTION_DDOT":0},{"OBJECT_NAME":"ONEWEB-0597","OBJECT_ID":"2022-166X","EPOCH":"2025-11-21T10:12:18.766080","MEAN_MOTION":13.21828727,"ECCENTRICITY":0.0001752,"INCLINATION":87.9193,"RA_OF_ASC_NODE":285.4344,"ARG_OF_PERICENTER":85.0638,"MEAN_ANOMALY":275.0696,"EPHEMERIS_TYPE":0,"CLASSIFICATION_TYPE":"U","NORAD_CAT_ID":54663,"ELEMENT_SET_NO":999,"REV_AT_EPOCH":14409,"BSTAR":-3.4413e-6,"MEAN_MOTION_DOT":1.2e-7,"MEAN_MOTION_DDOT":0},{"OBJECT_NAME":"ONEWEB-0600","OBJECT_ID":"2022-166Y","EPOCH":"2025-11-21T09:46:15.123072","MEAN_MOTION":13.21828712,"ECCENTRICITY":0.0001892,"INCLINATION":87.9191,"RA_OF_ASC_NODE":285.429,"ARG_OF_PERICENTER":86.9093,"MEAN_ANOMALY":273.2257,"EPHEMERIS_TYPE":0,"CLASSIFICATION_TYPE":"U","NORAD_CAT_ID":54664,"ELEMENT_SET_NO":999,"REV_AT_EPOCH":14406,"BSTAR":9.3936e-5,"MEAN_MOTION_DOT":5.2e-7,"MEAN_MOTION_DDOT":0},{"OBJECT_NAME":"ONEWEB-0601","OBJECT_ID":"2022-166Z","EPOCH":"2025-11-21T09:34:24.076128","MEAN_MOTION":13.2182856,"ECCENTRICITY":0.0001646,"INCLINATION":87.9193,"RA_OF_ASC_NODE":285.4486,"ARG_OF_PERICENTER":88.9138,"MEAN_ANOMALY":271.2184,"EPHEMERIS_TYPE":0,"CLASSIFICATION_TYPE":"U","NORAD_CAT_ID":54665,"ELEMENT_SET_NO":999,"REV_AT_EPOCH":14425,"BSTAR":0.00013752,"MEAN_MOTION_DOT":7.0e-7,"MEAN_MOTION_DDOT":0},{"OBJECT_NAME":"ONEWEB-0602","OBJECT_ID":"2022-166AA","EPOCH":"2025-11-21T10:32:28.734144","MEAN_MOTION":13.21824529,"ECCENTRICITY":0.0002083,"INCLINATION":87.9194,"RA_OF_ASC_NODE":285.4442,"ARG_OF_PERICENTER":91.6137,"MEAN_ANOMALY":268.5236,"EPHEMERIS_TYPE":0,"CLASSIFICATION_TYPE":"U","NORAD_CAT_ID":54666,"ELEMENT_SET_NO":999,"REV_AT_EPOCH":14410,"BSTAR":3.1923e-5,"MEAN_MOTION_DOT":2.6e-7,"MEAN_MOTION_DDOT":0},{"OBJECT_NAME":"ONEWEB-0603","OBJECT_ID":"2022-166AB","EPOCH":"2025-11-21T10:40:47.186976","MEAN_MOTION":13.21824457,"ECCENTRICITY":0.0001801,"INCLINATION":87.9202,"RA_OF_ASC_NODE":285.3806,"ARG_OF_PERICENTER":86.1999,"MEAN_ANOMALY":273.9341,"EPHEMERIS_TYPE":0,"CLASSIFICATION_TYPE":"U","NORAD_CAT_ID":54667,"ELEMENT_SET_NO":999,"REV_AT_EPOCH":14403,"BSTAR":0.00013116,"MEAN_MOTION_DOT":6.7e-7,"MEAN_MOTION_DDOT":0},{"OBJECT_NAME":"ONEWEB-0604","OBJECT_ID":"2022-166AC","EPOCH":"2025-11-21T10:24:10.472256","MEAN_MOTION":13.21826148,"ECCENTRICITY":0.0001855,"INCLINATION":87.9193,"RA_OF_ASC_NODE":285.4045,"ARG_OF_PERICENTER":89.0765,"MEAN_ANOMALY":271.0581,"EPHEMERIS_TYPE":0,"CLASSIFICATION_TYPE":"U","NORAD_CAT_ID":54668,"ELEMENT_SET_NO":999,"REV_AT_EPOCH":14399,"BSTAR":-0.00014359,"MEAN_MOTION_DOT":-4.6e-7,"MEAN_MOTION_DDOT":0},{"OBJECT_NAME":"ONEWEB-0605","OBJECT_ID":"2022-166AD","EPOCH":"2025-11-21T10:14:40.693632","MEAN_MOTION":13.21828825,"ECCENTRICITY":0.0001208,"INCLINATION":87.919,"RA_OF_ASC_NODE":285.4342,"ARG_OF_PERICENTER":86.2687,"MEAN_ANOMALY":273.8585,"EPHEMERIS_TYPE":0,"CLASSIFICATION_TYPE":"U","NORAD_CAT_ID":54669,"ELEMENT_SET_NO":999,"REV_AT_EPOCH":14406,"BSTAR":-1.0401e-5,"MEAN_MOTION_DOT":9.0e-8,"MEAN_MOTION_DDOT":0},{"OBJECT_NAME":"ONEWEB-0606","OBJECT_ID":"2022-166AE","EPOCH":"2025-11-21T10:45:29.230272","MEAN_MOTION":13.2182377,"ECCENTRICITY":0.0001971,"INCLINATION":87.9193,"RA_OF_ASC_NODE":285.4404,"ARG_OF_PERICENTER":77.486,"MEAN_ANOMALY":282.6494,"EPHEMERIS_TYPE":0,"CLASSIFICATION_TYPE":"U","NORAD_CAT_ID":54670,"ELEMENT_SET_NO":999,"REV_AT_EPOCH":14412,"BSTAR":2.8581e-5,"MEAN_MOTION_DOT":2.5e-7,"MEAN_MOTION_DDOT":0},{"OBJECT_NAME":"ONEWEB-0607","OBJECT_ID":"2022-166AF","EPOCH":"2025-11-21T09:58:05.295648","MEAN_MOTION":13.21829482,"ECCENTRICITY":0.0001804,"INCLINATION":87.9192,"RA_OF_ASC_NODE":285.411,"ARG_OF_PERICENTER":87.3809,"MEAN_ANOMALY":272.7531,"EPHEMERIS_TYPE":0,"CLASSIFICATION_TYPE":"U","NORAD_CAT_ID":54671,"ELEMENT_SET_NO":999,"REV_AT_EPOCH":14409,"BSTAR":8.4089e-6,"MEAN_MOTION_DOT":1.6e-7,"MEAN_MOTION_DDOT":0},{"OBJECT_NAME":"ONEWEB-0608","OBJECT_ID":"2022-166AG","EPOCH":"2025-11-21T10:07:35.956416","MEAN_MOTION":13.21827203,"ECCENTRICITY":0.000132,"INCLINATION":87.9197,"RA_OF_ASC_NODE":285.3958,"ARG_OF_PERICENTER":93.6882,"MEAN_ANOMALY":266.4403,"EPHEMERIS_TYPE":0,"CLASSIFICATION_TYPE":"U","NORAD_CAT_ID":54672,"ELEMENT_SET_NO":999,"REV_AT_EPOCH":14410,"BSTAR":0.0014717,"MEAN_MOTION_DOT":6.21e-6,"MEAN_MOTION_DDOT":0},{"OBJECT_NAME":"ONEWEB-0610","OBJECT_ID":"2022-166AH","EPOCH":"2025-11-21T09:39:09.006048","MEAN_MOTION":13.21827524,"ECCENTRICITY":0.0001433,"INCLINATION":87.919,"RA_OF_ASC_NODE":285.4344,"ARG_OF_PERICENTER":98.9431,"MEAN_ANOMALY":261.1866,"EPHEMERIS_TYPE":0,"CLASSIFICATION_TYPE":"U","NORAD_CAT_ID":54673,"ELEMENT_SET_NO":999,"REV_AT_EPOCH":14400,"BSTAR":-0.00012584,"MEAN_MOTION_DOT":-3.9e-7,"MEAN_MOTION_DDOT":0},{"OBJECT_NAME":"ONEWEB-0611","OBJECT_ID":"2022-166AJ","EPOCH":"2025-11-21T09:29:40.836192","MEAN_MOTION":13.21824612,"ECCENTRICITY":0.0002059,"INCLINATION":87.919,"RA_OF_ASC_NODE":285.4314,"ARG_OF_PERICENTER":80.0123,"MEAN_ANOMALY":280.1243,"EPHEMERIS_TYPE":0,"CLASSIFICATION_TYPE":"U","NORAD_CAT_ID":54674,"ELEMENT_SET_NO":999,"REV_AT_EPOCH":14399,"BSTAR":0.00012963,"MEAN_MOTION_DOT":6.7e-7,"MEAN_MOTION_DDOT":0},{"OBJECT_NAME":"ONEWEB-0612","OBJECT_ID":"2022-166AK","EPOCH":"2025-11-21T09:48:37.213056","MEAN_MOTION":13.21827797,"ECCENTRICITY":0.0001763,"INCLINATION":87.919,"RA_OF_ASC_NODE":285.4077,"ARG_OF_PERICENTER":85.328,"MEAN_ANOMALY":274.8055,"EPHEMERIS_TYPE":0,"CLASSIFICATION_TYPE":"U","NORAD_CAT_ID":54675,"ELEMENT_SET_NO":999,"REV_AT_EPOCH":14398,"BSTAR":0.00013222,"MEAN_MOTION_DOT":6.8e-7,"MEAN_MOTION_DDOT":0}]
